STARLINK-32597          
1 62304U 24239D   26068.63054263  .00031352  00000+0  10666-2 0  9990
2 62304  53.1595 181.5021 0000742  99.1720 260.9365 15.30189120 69550
TEVEL2-2                
1 63219U 25052K   26068.64848259  .00020339  00000+0  69428-3 0  9991
2 63219  97.3987 324.7700 0004693 105.7930 254.3828 15.30343745 54855
